NORAD_CAT_ID,OBJECT_NAME,OBJECT_TYPE,EPOCH,MEAN_MOTION,ECCENTRICITY,INCLINATION,RA_OF_ASC_NODE,ARG_OF_PERICENTER,MEAN_ANOMALY,BSTAR,MEAN_MOTION_DOT,MEAN_MOTION_DDOT,TLE_LINE0,TLE_LINE1,TLE_LINE2,SEMIMAJOR_AXIS,PERIOD,APOGEE,PERIGEE,DECAYED
49459.0,STARLINK-3141,PAYLOAD,2024-05-10 13:21:30,15.08847723,0.0001406,53.2168,338.4912,87.1565,272.9588,0.00021382,3.117e-05,0.0,0 STARLINK-3141,1 49459U 21104BD  24131.55660794  .00003117  00000-0  21382-3 0  9993,2 49459  53.2168 338.4912 0001406  87.1565 272.9588 15.08847723138986,6917.857,95.437,540.694,538.749,0.0
49459.0,STARLINK-3141,PAYLOAD,2024-05-10 21:18:26,15.0884822,0.0001262,53.2183,337.002,79.9468,280.1667,0.00011771,1.586e-05,0.0,0 STARLINK-3141,1 49459U 21104BD  24131.88780781  .00001586  00000-0  11771-3 0  9997,2 49459  53.2183 337.0020 0001262  79.9468 280.1667 15.08848220137968,6917.855,95.437,540.593,538.847,0.0
49459.0,STARLINK-3141,PAYLOAD,2024-05-11 13:12:15,15.08894826,0.0001167,53.2191,334.0278,79.8529,280.2595,0.00076513,0.00011928,0.0,0 STARLINK-3141,1 49459U 21104BD  24132.55017413  .00011928  00000-0  76513-3 0  9993,2 49459  53.2191 334.0278 0001167  79.8529 280.2595 15.08894826139135,6917.713,95.434,540.385,538.771,0.0
49459.0,STARLINK-3141,PAYLOAD,2024-05-11 19:33:50,15.0878588,0.0001407,53.2184,332.8386,98.2533,261.8619,-0.0021268,-0.00033927,0.0,0 STARLINK-3141,1 49459U 21104BD  24132.81516679 -.00033927  00000-0 -21268-2 0  9991,2 49459  53.2184 332.8386 0001407  98.2533 261.8619 15.08785880139175,6918.046,95.441,540.884,538.937,0.0
49459.0,STARLINK-3141,PAYLOAD,2024-05-12 06:41:34,15.08766596,0.000146,53.2181,330.7575,78.6634,281.4522,-0.001938,-0.00030937,0.0,0 STARLINK-3141,1 49459U 21104BD  24133.27886720 -.00030937  00000-0 -19380-2 0  9999,2 49459  53.2181 330.7575 0001460  78.6634 281.4522 15.08766596138175,6918.105,95.442,540.98,538.96,0.0
49459.0,STARLINK-3141,PAYLOAD,2024-05-12 19:24:39,15.08833905,0.0001464,53.218,328.3784,91.373,268.743,0.0008396,0.00013097,0.0,0 STARLINK-3141,1 49459U 21104BD  24133.80878749  .00013097  00000-0  83960-3 0  9992,2 49459  53.2180 328.3784 0001464  91.3730 268.7430 15.08833905139325,6917.899,95.438,540.777,538.751,0.0
49459.0,STARLINK-3141,PAYLOAD,2024-05-13 12:53:53,15.08852058,0.0001427,53.217,325.1074,83.7119,276.4035,0.0015225,0.00024034,0.0,0 STARLINK-3141,1 49459U 21104BD  24134.53743043  .00024034  00000-0  15225-2 0  9992,2 49459  53.2170 325.1074 0001427  83.7119 276.4035 15.08852058138366,6917.844,95.437,540.696,538.721,0.0
49459.0,STARLINK-3141,PAYLOAD,2024-05-13 22:26:11,15.08878948,0.0001569,53.2172,323.3223,92.2929,267.8242,0.0011958,0.00018815,0.0,0 STARLINK-3141,1 49459U 21104BD  24134.93485691  .00018815  00000-0  11958-2 0  9997,2 49459  53.2172 323.3223 0001569  92.2929 267.8242 15.08878948138422,6917.761,95.435,540.712,538.541,0.0
49459.0,STARLINK-3141,PAYLOAD,2024-05-14 12:44:39,15.0886861,0.0002497,53.2178,320.6441,93.7759,266.3519,0.00013832,1.915e-05,0.0,0 STARLINK-3141,1 49459U 21104BD  24135.53101017  .00001915  00000-0  13832-3 0  9998,2 49459  53.2178 320.6441 0002497  93.7759 266.3519 15.08868610139582,6917.793,95.436,541.385,537.931,0.0
49459.0,STARLINK-3141,PAYLOAD,2024-05-14 22:16:57,15.08864754,0.0001095,53.2178,318.8616,89.1866,270.9252,0.00021099,3.074e-05,0.0,0 STARLINK-3141,1 49459U 21104BD  24135.92844483  .00003074  00000-0  21099-3 0  9994,2 49459  53.2178 318.8616 0001095  89.1866 270.9252 15.08864754138574,6917.805,95.436,540.427,538.912,0.0
49459.0,STARLINK-3141,PAYLOAD,2024-05-15 04:38:30,15.08847193,0.0002918,53.2177,317.6716,83.7506,276.3818,-1.5459e-05,-5.35e-06,0.0,0 STARLINK-3141,1 49459U 21104BD  24136.19341281 -.00000535  00000-0 -15459-4 0  9997,2 49459  53.2177 317.6716 0002918  83.7506 276.3818 15.08847193139686,6917.858,95.437,541.742,537.705,0.0
49459.0,STARLINK-3141,PAYLOAD,2024-05-15 12:35:25,15.08844902,0.0001145,53.2168,316.1851,93.6196,266.4927,0.00059498,9.195e-05,0.0,0 STARLINK-3141,1 49459U 21104BD  24136.52460646  .00009195  00000-0  59498-3 0  9990,2 49459  53.2168 316.1851 0001145  93.6196 266.4927 15.08844902138669,6917.865,95.437,540.523,538.938,0.0
49459.0,STARLINK-3141,PAYLOAD,2024-05-15 18:56:58,15.08860227,0.0001328,53.2182,314.9951,103.7168,256.3972,0.0012346,0.00019426,0.0,0 STARLINK-3141,1 49459U 21104BD  24136.78956319  .00019426  00000-0  12346-2 0  9993,2 49459  53.2182 314.9951 0001328 103.7168 256.3972 15.08860227139776,6917.819,95.436,540.602,538.765,0.0
49459.0,STARLINK-3141,PAYLOAD,2024-05-16 04:29:16,15.08862539,0.0001623,53.2172,313.21,67.7015,292.4149,0.000911,0.00014249,0.0,0 STARLINK-3141,1 49459U 21104BD  24137.18700200  .00014249  00000-0  91100-3 0  9998,2 49459  53.2172 313.2100 0001623  67.7015 292.4149 15.08862539139833,6917.811,95.436,540.799,538.554,0.0
49459.0,STARLINK-3141,PAYLOAD,2024-05-16 18:47:45,15.0884698,0.0001378,53.217,310.5336,64.1459,295.9675,0.00026227,3.889e-05,0.0,0 STARLINK-3141,1 49459U 21104BD  24137.78316140  .00003889  00000-0  26227-3 0  9996,2 49459  53.2170 310.5336 0001378  64.1459 295.9675 15.08846980139926,6917.859,95.437,540.677,538.771,0.0
49459.0,STARLINK-3141,PAYLOAD,2024-05-16 21:58:31,15.08845659,0.0001405,53.2174,309.9393,71.9288,288.1857,0.00042411,6.469e-05,0.0,0 STARLINK-3141,1 49459U 21104BD  24137.91564202  .00006469  00000-0  42411-3 0  9995,2 49459  53.2174 309.9393 0001405  71.9288 288.1857 15.08845659138873,6917.863,95.437,540.7,538.756,0.0
49459.0,STARLINK-3141,PAYLOAD,2024-05-17 04:20:04,15.08822229,0.0002209,53.2176,308.75,76.3402,283.7836,-0.00011868,-2.176e-05,0.0,0 STARLINK-3141,1 49459U 21104BD  24138.18060912 -.00002176  00000-0 -11868-3 0  9999,2 49459  53.2176 308.7500 0002209  76.3402 283.7836 15.08822229139981,6917.935,95.439,541.328,538.272,0.0
49459.0,STARLINK-3141,PAYLOAD,2024-05-18 04:10:52,15.08842784,0.0002698,53.2177,304.2911,81.3349,278.7949,0.0011017,0.00017291,0.0,0 STARLINK-3141,1 49459U 21104BD  24139.17422166  .00017291  00000-0  11017-2 0  9999,2 49459  53.2177 304.2911 0002698  81.3349 278.7949 15.08842784140133,6917.872,95.437,541.603,537.87,0.0
49459.0,STARLINK-3141,PAYLOAD,2024-05-18 20:04:42,15.08887818,0.0001492,53.2161,301.3172,89.7459,270.3704,0.0015909,0.00025155,0.0,0 STARLINK-3141,1 49459U 21104BD  24139.83660346  .00025155  00000-0  15909-2 0  9998,2 49459  53.2161 301.3172 0001492  89.7459 270.3704 15.08887818140233,6917.734,95.435,540.631,538.567,0.0
49459.0,STARLINK-3141,PAYLOAD,2024-05-19 19:55:31,15.08822397,0.0001072,53.2159,296.8564,120.1668,239.943,0.0012573,0.00019769,0.0,0 STARLINK-3141,1 49459U 21104BD  24140.83022253  .00019769  00000-0  12573-2 0  9997,2 49459  53.2159 296.8564 0001072 120.1668 239.9430 15.08822397140383,6917.934,95.439,540.541,539.058,0.0
49459.0,STARLINK-3141,PAYLOAD,2024-05-20 10:13:59,15.08843029,9.93e-05,53.2162,294.1794,105.6086,254.5016,0.0010648,0.000167,0.0,0 STARLINK-3141,1 49459U 21104BD  24141.42638512  .00016700  00000-0  10648-2 0  9997,2 49459  53.2162 294.1794 0000993 105.6086 254.5016 15.08843029139405,6917.871,95.437,540.423,539.049,0.0
49459.0,STARLINK-3141,PAYLOAD,2024-05-20 16:35:31,15.08864607,0.0001162,53.2163,292.9945,95.8524,264.26,0.0015082,0.00023813,0.0,0 STARLINK-3141,1 49459U 21104BD  24141.69134072  .00023813  00000-0  15082-2 0  9998,2 49459  53.2163 292.9945 0001162  95.8524 264.2600 15.08864607140512,6917.805,95.436,540.474,538.866,0.0
49459.0,STARLINK-3141,PAYLOAD,2024-05-21 13:15:32,15.08855576,0.0001104,53.2176,289.1245,92.2805,267.8314,0.00060255,9.319e-05,0.0,0 STARLINK-3141,1 49459U 21104BD  24142.55245960  .00009319  00000-0  60255-3 0  9991,2 49459  53.2176 289.1245 0001104  92.2805 267.8314 15.08855576140646,6917.833,95.437,540.462,538.934,0.0
49459.0,STARLINK-3141,PAYLOAD,2024-05-21 14:50:55,15.08853858,9.51e-05,53.2172,288.8267,86.8533,273.2568,0.00053364,8.218e-05,0.0,0 STARLINK-3141,1 49459U 21104BD  24142.61869939  .00008218  00000-0  53364-3 0  9996,2 49459  53.2172 288.8267 0000951  86.8533 273.2568 15.08853858139582,6917.838,95.437,540.361,539.045,0.0
49459.0,STARLINK-3141,PAYLOAD,2024-05-21 16:26:18,15.08851613,9.83e-05,53.2175,288.5281,87.1812,272.9293,0.00042237,6.443e-05,0.0,0 STARLINK-3141,1 49459U 21104BD  24142.68493901  .00006443  00000-0  42237-3 0  9990,2 49459  53.2175 288.5281 0000983  87.1812 272.9293 15.08851613139596,6917.845,95.437,540.39,539.03,0.0
49459.0,STARLINK-3141,PAYLOAD,2024-05-22 09:55:33,15.08844102,0.0001202,53.2179,285.2589,80.6687,279.4441,0.00028465,4.246e-05,0.0,0 STARLINK-3141,1 49459U 21104BD  24143.41358027  .00004246  00000-0  28465-3 0  9997,2 49459  53.2179 285.2589 0001202  80.6687 279.4441 15.08844102140772,6917.868,95.437,540.564,538.901,0.0
49459.0,STARLINK-3141,PAYLOAD,2024-05-23 12:57:06,15.08836829,0.0001176,53.2181,280.204,77.594,282.5183,4.8307e-05,4.81e-06,0.0,0 STARLINK-3141,1 49459U 21104BD  24144.53966342  .00000481  00000-0  48307-4 0  9991,2 49459  53.2181 280.2040 0001176  77.5940 282.5183 15.08836829140943,6917.89,95.438,540.569,538.942,0.0
49459.0,STARLINK-3141,PAYLOAD,2024-05-23 14:32:30,15.08837217,0.000118,53.2176,279.9065,74.389,285.7232,3.5117e-05,2.71e-06,0.0,0 STARLINK-3141,1 49459U 21104BD  24144.60590383  .00000271  00000-0  35117-4 0  9999,2 49459  53.2176 279.9065 0001180  74.3890 285.7232 15.08837217139886,6917.889,95.438,540.57,538.938,0.0
49459.0,STARLINK-3141,PAYLOAD,2024-05-24 14:23:16,15.0885151,0.0001272,53.2176,275.4454,103.7456,256.3678,0.00030388,4.553e-05,0.0,0 STARLINK-3141,1 49459U 21104BD  24145.59949865  .00004553  00000-0  30388-3 0  9992,2 49459  53.2176 275.4454 0001272 103.7456 256.3678 15.08851510140035,6917.845,95.437,540.59,538.83,0.0
49459.0,STARLINK-3141,PAYLOAD,2024-05-24 19:09:25,15.08854674,0.0001328,53.2184,274.5529,123.01,237.102,0.00031067,4.662e-05,0.0,0 STARLINK-3141,1 49459U 21104BD  24145.79821523  .00004662  00000-0  31067-3 0  9990,2 49459  53.2184 274.5529 0001328 123.0100 237.1020 15.08854674141134,6917.836,95.437,540.619,538.782,0.0
